NORAD_CAT_ID,OBJECT_NAME,OBJECT_TYPE,EPOCH,MEAN_MOTION,ECCENTRICITY,INCLINATION,RA_OF_ASC_NODE,ARG_OF_PERICENTER,MEAN_ANOMALY,BSTAR,MEAN_MOTION_DOT,MEAN_MOTION_DDOT,TLE_LINE0,TLE_LINE1,TLE_LINE2,SEMIMAJOR_AXIS,PERIOD,APOGEE,PERIGEE,DECAYED
52298.0,STARLINK-3760,PAYLOAD,2024-07-21 11:13:13,15.08852209,0.000145,53.2147,255.2825,79.8199,280.2957,0.00062425,9.664e-05,0.0,0 STARLINK-3760,1 52298U 22041AP  24203.46752026  .00009664  00000-0  62425-3 0  9995,2 52298  53.2147 255.2825 0001450  79.8199 280.2957 15.08852209125711,6917.843,95.437,540.711,538.705,0.0
52298.0,STARLINK-3760,PAYLOAD,2024-07-22 09:28:37,15.08843578,0.0001654,53.2144,251.1206,75.6992,284.4184,0.0003594,5.437e-05,0.0,0 STARLINK-3760,1 52298U 22041AP  24204.39488275  .00005437  00000-0  35940-3 0  9996,2 52298  53.2144 251.1206 0001654  75.6992 284.4184 15.08843578125859,6917.869,95.437,540.879,538.59,0.0
52298.0,STARLINK-3760,PAYLOAD,2024-07-23 09:19:24,15.08854932,0.0001479,53.2145,246.6594,92.0577,268.0585,0.00039526,6.011e-05,0.0,0 STARLINK-3760,1 52298U 22041AP  24205.38847545  .00006011  00000-0  39526-3 0  9998,2 52298  53.2145 246.6594 0001479  92.0577 268.0585 15.08854932124797,6917.835,95.437,540.723,538.677,0.0
52298.0,STARLINK-3760,PAYLOAD,2024-07-24 12:20:58,15.0883495,0.0001352,53.2151,241.603,78.1948,281.9196,-2.3311e-05,-6.59e-06,0.0,0 STARLINK-3760,1 52298U 22041AP  24206.51456573 -.00000659  00000-0 -23311-4 0  9991,2 52298  53.2151 241.6030 0001352  78.1948 281.9196 15.08834950126175,6917.896,95.438,540.696,538.826,0.0
52298.0,STARLINK-3760,PAYLOAD,2024-07-25 05:50:12,15.08842437,0.000117,53.2147,238.333,94.8717,265.2408,6.1018e-05,6.83e-06,0.0,0 STARLINK-3760,1 52298U 22041AP  24207.24320188  .00000683  00000-0  61018-4 0  9995,2 52298  53.2147 238.3330 0001170  94.8717 265.2408 15.08842437125071,6917.873,95.437,540.547,538.929,0.0
52298.0,STARLINK-3760,PAYLOAD,2024-07-25 12:11:45,15.08848075,0.0001203,53.215,237.1428,78.2259,281.8868,0.00018431,2.647e-05,0.0,0 STARLINK-3760,1 52298U 22041AP  24207.50816010  .00002647  00000-0  18431-3 0  9990,2 52298  53.2150 237.1428 0001203  78.2259 281.8868 15.08848075126321,6917.856,95.437,540.553,538.888,0.0
52298.0,STARLINK-3760,PAYLOAD,2024-07-26 02:30:13,15.08838395,0.0001202,53.2149,234.4654,84.2466,275.8663,0.00020444,2.967e-05,0.0,0 STARLINK-3760,1 52298U 22041AP  24208.10432496  .00002967  00000-0  20444-3 0  9991,2 52298  53.2149 234.4654 0001202  84.2466 275.8663 15.08838395126416,6917.885,95.438,540.582,538.919,0.0
52298.0,STARLINK-3760,PAYLOAD,2024-07-26 08:51:46,15.08844744,0.0001192,53.2148,233.2777,84.7036,275.4092,0.0002245,3.287e-05,0.0,0 STARLINK-3760,1 52298U 22041AP  24208.36928241  .00003287  00000-0  22450-3 0  9992,2 52298  53.2148 233.2777 0001192  84.7036 275.4092 15.08844744125241,6917.866,95.437,540.555,538.906,0.0
52298.0,STARLINK-3760,PAYLOAD,2024-07-26 18:24:04,15.08844086,0.0001197,53.2147,231.4939,85.89,274.2229,0.00013261,1.823e-05,0.0,0 STARLINK-3760,1 52298U 22041AP  24208.76672163  .00001823  00000-0  13261-3 0  9999,2 52298  53.2147 231.4939 0001197  85.8900 274.2229 15.08844086125302,6917.868,95.437,540.561,538.905,0.0
52298.0,STARLINK-3760,PAYLOAD,2024-07-27 05:31:46,15.08840101,0.0001212,53.2147,229.4109,81.9205,278.1925,-1.4898e-05,-5.25e-06,0.0,0 STARLINK-3760,1 52298U 22041AP  24209.23040200 -.00000525  00000-0 -14898-4 0  9991,2 52298  53.2147 229.4109 0001212  81.9205 278.1925 15.08840101125378,6917.88,95.438,540.584,538.907,0.0
52298.0,STARLINK-3760,PAYLOAD,2024-07-27 10:17:56,15.08843085,0.000129,53.2152,228.5198,84.9229,275.191,4.8845e-05,4.9e-06,0.0,0 STARLINK-3760,1 52298U 22041AP  24209.42912111  .00000490  00000-0  48845-4 0  9999,2 52298  53.2152 228.5198 0001290  84.9229 275.1910 15.08843085126610,6917.871,95.437,540.628,538.844,0.0
52298.0,STARLINK-3760,PAYLOAD,2024-07-28 10:08:43,15.08841668,0.0001277,53.2157,224.0591,86.9033,273.2105,5.6112e-05,6.05e-06,0.0,0 STARLINK-3760,1 52298U 22041AP  24210.42272444  .00000605  00000-0  56112-4 0  9993,2 52298  53.2157 224.0591 0001277  86.9033 273.2105 15.08841668126769,6917.875,95.437,540.624,538.857,0.0
52298.0,STARLINK-3760,PAYLOAD,2024-07-28 21:16:25,15.0883833,0.0001282,53.2154,221.9771,86.7772,273.3366,7.257e-05,8.67e-06,0.0,0 STARLINK-3760,1 52298U 22041AP  24210.88640679  .00000867  00000-0  72570-4 0  9998,2 52298  53.2154 221.9771 0001282  86.7772 273.3366 15.08838330125622,6917.885,95.438,540.637,538.864,0.0
52298.0,STARLINK-3760,PAYLOAD,2024-07-29 09:59:30,15.08841091,0.0001262,53.2154,219.5977,86.6732,273.4405,5.2963e-05,5.55e-06,0.0,0 STARLINK-3760,1 52298U 22041AP  24211.41632584  .00000555  00000-0  52963-4 0  9992,2 52298  53.2154 219.5977 0001262  86.6732 273.4405 15.08841091125708,6917.877,95.437,540.615,538.869,0.0
52298.0,STARLINK-3760,PAYLOAD,2024-07-30 05:04:08,15.08838284,0.0001244,53.2155,216.0278,88.3345,271.7789,5.1538e-05,5.32e-06,0.0,0 STARLINK-3760,1 52298U 22041AP  24212.21120896  .00000532  00000-0  51538-4 0  9991,2 52298  53.2155 216.0278 0001244  88.3345 271.7789 15.08838284127038,6917.886,95.438,540.611,538.89,0.0
52298.0,STARLINK-3760,PAYLOAD,2024-07-30 06:39:31,15.08838558,0.0001221,53.2154,215.7301,91.3215,268.7917,5.0761e-05,5.2e-06,0.0,0 STARLINK-3760,1 52298U 22041AP  24212.27744862  .00000520  00000-0  50761-4 0  9996,2 52298  53.2154 215.7301 0001221  91.3215 268.7917 15.08838558125834,6917.885,95.438,540.594,538.905,0.0
52298.0,STARLINK-3760,PAYLOAD,2024-07-30 17:47:13,15.0884519,0.0001279,53.2158,213.6502,86.2116,273.9022,0.00011229,1.5e-05,0.0,0 STARLINK-3760,1 52298U 22041AP  24212.74112325  .00001500  00000-0  11229-3 0  9995,2 52298  53.2158 213.6502 0001279  86.2116 273.9022 15.08845190127112,6917.865,95.437,540.614,538.845,0.0
52298.0,STARLINK-3760,PAYLOAD,2024-07-31 06:30:17,15.08850718,0.0001286,53.2157,211.2705,88.9952,271.1187,0.00017941,2.569e-05,0.0,0 STARLINK-3760,1 52298U 22041AP  24213.27103761  .00002569  00000-0  17941-3 0  9991,2 52298  53.2157 211.2705 0001286  88.9952 271.1187 15.08850718125982,6917.848,95.437,540.602,538.823,0.0
52298.0,STARLINK-3760,PAYLOAD,2024-08-01 04:45:42,15.08839738,0.0001311,53.2158,207.1062,91.8796,268.2346,3.5797e-05,2.82e-06,0.0,0 STARLINK-3760,1 52298U 22041AP  24214.19840676  .00000282  00000-0  35797-4 0  9996,2 52298  53.2158 207.1062 0001311  91.8796 268.2346 15.08839738126121,6917.881,95.438,540.653,538.839,0.0
52298.0,STARLINK-3760,PAYLOAD,2024-08-02 09:22:39,15.08835084,0.0001507,53.2167,201.7529,98.2783,261.838,-4.0152e-05,-9.27e-06,0.0,0 STARLINK-3760,1 52298U 22041AP  24215.39073248 -.00000927  00000-0 -40152-4 0  9991,2 52298  53.2167 201.7529 0001507  98.2783 261.8380 15.08835084127514,6917.895,95.438,540.803,538.718,0.0
52298.0,STARLINK-3760,PAYLOAD,2024-08-02 22:05:44,15.08832718,0.0001338,53.216,199.3761,92.0809,268.0336,8.1809e-05,1.014e-05,0.0,0 STARLINK-3760,1 52298U 22041AP  24215.92065126  .00001014  00000-0  81809-4 0  9996,2 52298  53.2160 199.3761 0001338  92.0809 268.0336 15.08832718126385,6917.903,95.438,540.693,538.842,0.0
52298.0,STARLINK-3760,PAYLOAD,2024-08-03 06:02:39,15.08837797,0.0001279,53.2156,197.8901,86.2783,273.8355,0.0001188,1.603e-05,0.0,0 STARLINK-3760,1 52298U 22041AP  24216.25184862  .00001603  00000-0  11880-3 0  9997,2 52298  53.2156 197.8901 0001279  86.2783 273.8355 15.08837797127646,6917.887,95.438,540.637,538.867,0.0
52298.0,STARLINK-3760,PAYLOAD,2024-08-04 05:53:26,15.08844407,0.0001237,53.2151,193.4299,87.7572,272.3562,0.0001294,1.772e-05,0.0,0 STARLINK-3760,1 52298U 22041AP  24217.24544681  .00001772  00000-0  12940-3 0  9991,2 52298  53.2151 193.4299 0001237  87.7572 272.3562 15.08844407126581,6917.867,95.437,540.588,538.876,0.0
52298.0,STARLINK-3760,PAYLOAD,2024-08-04 15:25:45,15.08845306,0.0001227,53.215,191.6457,84.8375,275.2757,0.00012103,1.639e-05,0.0,0 STARLINK-3760,1 52298U 22041AP  24217.64288608  .00001639  00000-0  12103-3 0  9992,2 52298  53.2150 191.6457 0001227  84.8375 275.2757 15.08845306127852,6917.864,95.437,540.578,538.88,0.0
52298.0,STARLINK-3760,PAYLOAD,2024-08-05 04:08:50,15.08840642,0.000149,53.2174,189.2695,85.7417,274.3745,7.3269e-05,8.78e-06,0.0,0 STARLINK-3760,1 52298U 22041AP  24218.17281102  .00000878  00000-0  73269-4 0  9998,2 52298  53.2174 189.2695 0001490  85.7417 274.3745 15.08840642127938,6917.878,95.438,540.774,538.713,0.0
52298.0,STARLINK-3760,PAYLOAD,2024-08-05 05:44:13,15.08848801,0.000133,53.2159,188.9707,84.5976,275.5168,0.00012535,1.708e-05,0.0,0 STARLINK-3760,1 52298U 22041AP  24218.23904407  .00001708  00000-0  12535-3 0  9996,2 52298  53.2159 188.9707 0001330  84.5976 275.5168 15.08848801127949,6917.853,95.437,540.639,538.798,0.0
52298.0,STARLINK-3760,PAYLOAD,2024-08-05 15:16:33,15.08831226,0.0001595,53.2162,187.1871,79.3255,280.7917,-1.5741e-05,-5.38e-06,0.0,0 STARLINK-3760,1 52298U 22041AP  24218.63650034 -.00000538  00000-0 -15741-4 0  9999,2 52298  53.2162 187.1871 0001595  79.3255 280.7917 15.08831226128002,6917.907,95.438,540.876,538.669,0.0
52298.0,STARLINK-3760,PAYLOAD,2024-08-06 03:59:39,15.08825858,0.0001385,53.2157,184.8055,80.2666,279.8483,-0.00012083,-2.21e-05,0.0,0 STARLINK-3760,1 52298U 22041AP  24219.16643006 -.00002210  00000-0 -12083-3 0  9993,2 52298  53.2157 184.8055 0001385  80.2666 279.8483 15.08825858128087,6917.924,95.438,540.747,538.83,0.0
52298.0,STARLINK-3760,PAYLOAD,2024-08-06 07:10:25,15.08829073,0.0001473,53.2166,184.2088,81.2001,278.9157,-8.6479e-05,-1.664e-05,0.0,0 STARLINK-3760,1 52298U 22041AP  24219.29890810 -.00001664  00000-0 -86479-4 0  9997,2 52298  53.2166 184.2088 0001473  81.2001 278.9157 15.08829073126897,6917.914,95.438,540.798,538.76,0.0
52298.0,STARLINK-3760,PAYLOAD,2024-08-06 15:07:20,15.08836722,0.0001568,53.2174,182.7247,81.8485,278.2685,-3.1321e-06,-3.38e-06,0.0,0 STARLINK-3760,1 52298U 22041AP  24219.63010297 -.00000338  00000-0 -31321-5 0  9992,2 52298  53.2174 182.7247 0001568  81.8485 278.2685 15.08836722128152,6917.89,95.438,540.84,538.671,0.0
